COSMOS 2251 DEB         
1 37095U 93036BFR 24355.57703903  .00006545  00000+0  36806-2 0  9992
2 37095  73.8484  97.9782 0200791 222.6145 135.9263 14.00974874799562
COSMOS 2251 DEB         
1 37108U 93036BGE 24366.32140180  .00008563  00000+0  27026-2 0  9990
2 37108  74.0456 359.9869 0096954 164.2200 196.2014 14.37697820805221
COSMOS 2251 DEB         
1 37126U 93036BGY 24365.13689564  .00005637  00000+0  80919-3 0  9992
2 37126  73.9540 314.5780 0127618 273.9408  84.7182 14.71242343 29838
COSMOS 2251 DEB         
1 37132U 93036BHE 24366.78086283  .00016557  00000+0  26487-2 0  9992
2 37132  74.0038 191.1523 0045379  75.7136 284.9068 14.71091219573163
COSMOS 2251 DEB         
1 37270U 93036BHJ 24364.88764297  .00011153  00000+0  92861-2 0  9998
2 37270  73.9353 182.1312 0407300 261.4492  94.0277 13.56307538724633
COSMOS 2251 DEB         
1 37280U 93036BHU 24365.59881877  .00007453  00000+0  34255-2 0  9993
2 37280  74.0335 316.1780 0138079 166.7761 193.7062 14.16403140524038
COSMOS 2251 DEB         
1 37284U 93036BHY 24365.41977862  .00014352  00000+0  70849-2 0  9993
2 37284  74.0233  50.2017 0176325 280.5595  89.3432 14.09682500542755
COSMOS 2251 DEB         
1 37295U 93036BJK 24363.63491183  .00006756  00000+0  13273-2 0  9991
2 37295  74.0071 233.0914 0048195 139.5585 220.9181 14.62088837771962
COSMOS 2251 DEB         
1 37305U 93036BJV 24365.31340441  .00004967  00000+0  17554-2 0  9998
2 37305  73.8744 214.0834 0050086 242.9199 116.6837 14.34208781618825
COSMOS 2251 DEB         
1 37312U 93036BKC 24366.75231605  .00006345  00000+0  18441-2 0  9994
2 37312  74.0330 129.1940 0019500 318.0801  41.8862 14.44371658811650
COSMOS 2251 DEB         
1 37316U 93036BKG 24366.22703866  .00034533  00000+0  48892-2 0  9996
2 37316  74.0288 349.8079 0041693 163.6200 196.6334 14.76302412809999
COSMOS 2251 DEB         
1 37320U 93036BKL 24365.16649190  .00014031  00000+0  21583-2 0  9991
2 37320  74.0473 177.9239 0051960 356.7407   3.3418 14.72607640610196
COSMOS 2251 DEB         
1 37326U 93036BKS 24366.09132628  .00006882  00000+0  14382-2 0  9997
2 37326  74.0277 276.9954 0058643 134.3455 226.2538 14.58924624806167
COSMOS 2251 DEB         
1 37327U 93036BKT 24349.67972051  .00078896  00000+0  70876-2 0  9999
2 37327  74.0090 330.5847 0009213 217.0443 143.0106 14.95232841 28420
COSMOS 2251 DEB         
1 37330U 93036BKW 24365.37849911  .00004258  00000+0  91342-3 0  9999
2 37330  74.0176 237.4019 0059911 172.0600 188.1528 14.57836565813038
COSMOS 2251 DEB         
1 37331U 93036BKX 24366.19986373  .00004755  00000+0  17007-2 0  9992
2 37331  74.0761 340.8705 0055196  83.4322 277.3109 14.33456481797910
COSMOS 2251 DEB         
1 37336U 93036BLC 24363.42658110  .00000469  00000+0  18142-3 0  9995
2 37336  74.0404 248.8145 0028974  52.1994 308.1774 14.32545353601175
COSMOS 2251 DEB         
1 37340U 93036BLG 24366.79281579  .00001596  00000+0  55361-3 0  9990
2 37340  74.0233 193.3454 0018042  13.0001 347.1614 14.36332222790995
COSMOS 2251 DEB         
1 37483U 93036BLL 24365.90246501  .00002069  00000+0  59833-3 0  9990
2 37483  73.9752  69.9991 0094714 355.9790   4.0593 14.42611470790812
COSMOS 2251 DEB         
1 37484U 93036BLM 24362.67705582  .00007799  00000+0  25043-2 0  9991
2 37484  73.8240 144.3198 0041038 246.1283 125.5171 14.39077092603388
COSMOS 2251 DEB         
1 37486U 93036BLP 24365.80704128  .00025856  00000+0  11425-1 0  9998
2 37486  73.7021  19.2482 0252329 297.7882 239.1452 14.07593171584766
COSMOS 2251 DEB         
1 37487U 93036BLQ 24365.73455819  .00049801  00000+0  96097-2 0  9996
2 37487  73.9146 152.3057 0038989  64.5542 295.9650 14.62694028761391
COSMOS 2251 DEB         
1 37491U 93036BLU 24364.12294296  .00007707  00000+0  57321-2 0  9999
2 37491  73.9072 137.8729 0318202 197.0687 161.9537 13.73757584509562
COSMOS 2251 DEB         
1 37499U 93036BMC 24365.06531807  .00001054  00000+0  38625-3 0  9999
2 37499  74.0367 238.4568 0027186  40.0312 320.2836 14.33879738801658
COSMOS 2251 DEB         
1 37500U 93036BMD 24366.50004290  .00060191  00000+0  79311-3 0  9997
2 37500  73.9522 285.2907 0086544 182.8344 177.2394 15.53698692843872
COSMOS 2251 DEB         
1 37515U 93036BMU 24366.36642765  .00056775  00000+0  74996-2 0  9998
2 37515  74.1313 235.5680 0055642 201.1582 158.7294 14.78611978805698
COSMOS 2251 DEB         
1 37528U 93036BNH 24366.84913674  .00005386  00000+0  14271-2 0  9997
2 37528  74.0387  51.3485 0023056 285.3128  74.5484 14.48816416809188
COSMOS 2251 DEB         
1 37530U 93036BNK 24366.43198273  .00001725  00000+0  62616-3 0  9995
2 37530  74.0346 247.5670 0026176  34.9707 138.0547 14.33867596802670
COSMOS 2251 DEB         
1 37532U 93036BNM 24366.12952528  .00002643  00000+0  81967-3 0  9994
2 37532  74.0502 137.6943 0016509 325.0066 208.8841 14.41553576799193
COSMOS 2251 DEB         
1 37533U 93036BNN 24365.89324827  .00010702  00000+0  53965-2 0  9994
2 37533  74.0661  82.1471 0164298 224.2567 134.5338 14.09620099784644
