OBJECT_NAME,OBJECT_ID,EPOCH,MEAN_MOTION,ECCENTRICITY,INCLINATION,RA_OF_ASC_NODE,ARG_OF_PERICENTER,MEAN_ANOMALY,EPHEMERIS_TYPE,CLASSIFICATION_TYPE,NORAD_CAT_ID,ELEMENT_SET_NO,REV_AT_EPOCH,BSTAR,MEAN_MOTION_DOT,MEAN_MOTION_DDOT
COSMOS 2251 DEB,1993-036BFR,2024-12-20T13:50:56.172192,14.00974874,0.0200791,73.8484,97.9782,222.6145,135.9263,0,U,37095,999,79956,3.68E-03,6.55E-05,0
COSMOS 2251 DEB,1993-036BGE,2024-12-31T07:42:49.115520,14.3769782,0.0096954,74.0456,359.9869,164.22,196.2014,0,U,37108,999,80522,2.70E-03,8.56E-05,0
COSMOS 2251 DEB,1993-036BGY,2024-12-30T03:17:07.783296,14.71242343,0.0127618,73.954,314.578,273.9408,84.7182,0,U,37126,999,2983,8.09E-04,5.64E-05,0
COSMOS 2251 DEB,1993-036BHE,2024-12-31T18:44:26.548512,14.71091219,0.0045379,74.0038,191.1523,75.7136,284.9068,0,U,37132,999,57316,2.65E-03,1.66E-04,0
COSMOS 2251 DEB,1993-036BHJ,2024-12-29T21:18:12.352608,13.56307538,0.04073,73.9353,182.1312,261.4492,94.0277,0,U,37270,999,72463,9.29E-03,1.12E-04,0
COSMOS 2251 DEB,1993-036BHU,2024-12-30T14:22:17.941728,14.1640314,0.0138079,74.0335,316.178,166.7761,193.7062,0,U,37280,999,52403,3.43E-03,7.45E-05,0
COSMOS 2251 DEB,1993-036BHY,2024-12-30T10:04:28.872768,14.096825,0.0176325,74.0233,50.2017,280.5595,89.3432,0,U,37284,999,54275,7.08E-03,1.44E-04,0
COSMOS 2251 DEB,1993-036BJK,2024-12-28T15:14:16.382112,14.62088837,0.0048195,74.0071,233.0914,139.5585,220.9181,0,U,37295,999,77196,1.33E-03,6.76E-05,0
COSMOS 2251 DEB,1993-036BJV,2024-12-30T07:31:18.141024,14.34208781,0.0050086,73.8744,214.0834,242.9199,116.6837,0,U,37305,999,61882,1.76E-03,4.97E-05,0
COSMOS 2251 DEB,1993-036BKC,2024-12-31T18:03:20.106720,14.44371658,0.00195,74.033,129.194,318.0801,41.8862,0,U,37312,999,81165,1.84E-03,6.35E-05,0
COSMOS 2251 DEB,1993-036BKG,2024-12-31T05:26:56.140224,14.76302412,0.0041693,74.0288,349.8079,163.62,196.6334,0,U,37316,999,80999,4.89E-03,3.45E-04,0
COSMOS 2251 DEB,1993-036BKL,2024-12-30T03:59:44.900160,14.7260764,0.005196,74.0473,177.9239,356.7407,3.3418,0,U,37320,999,61019,2.16E-03,1.40E-04,0
COSMOS 2251 DEB,1993-036BKS,2024-12-31T02:11:30.590592,14.58924624,0.0058643,74.0277,276.9954,134.3455,226.2538,0,U,37326,999,80616,1.44E-03,6.88E-05,0
COSMOS 2251 DEB,1993-036BKT,2024-12-14T16:18:47.852064,14.95232841,0.0009213,74.009,330.5847,217.0443,143.0106,0,U,37327,999,2842,7.09E-03,7.89E-04,0
COSMOS 2251 DEB,1993-036BKW,2024-12-30T09:05:02.323104,14.57836565,0.0059911,74.0176,237.4019,172.06,188.1528,0,U,37330,999,81303,9.13E-04,4.26E-05,0
COSMOS 2251 DEB,1993-036BKX,2024-12-31T04:47:48.226272,14.33456481,0.0055196,74.0761,340.8705,83.4322,277.3109,0,U,37331,999,79791,1.70E-03,4.76E-05,0
COSMOS 2251 DEB,1993-036BLC,2024-12-28T10:14:16.607040,14.32545353,0.0028974,74.0404,248.8145,52.1994,308.1774,0,U,37336,999,60117,1.81E-04,4.69E-06,0
COSMOS 2251 DEB,1993-036BLG,2024-12-31T19:01:39.284256,14.36332222,0.0018042,74.0233,193.3454,13.0001,347.1614,0,U,37340,999,79099,5.54E-04,1.60E-05,0
COSMOS 2251 DEB,1993-036BLL,2024-12-30T21:39:32.976864,14.4261147,0.0094714,73.9752,69.9991,355.979,4.0593,0,U,37483,999,79081,5.98E-04,2.07E-05,0
COSMOS 2251 DEB,1993-036BLM,2024-12-27T16:14:57.622848,14.39077092,0.0041038,73.824,144.3198,246.1283,125.5171,0,U,37484,999,60338,2.50E-03,7.80E-05,0
COSMOS 2251 DEB,1993-036BLP,2024-12-30T19:22:08.366592,14.07593171,0.0252329,73.7021,19.2482,297.7882,239.1452,0,U,37486,999,58476,1.14E-02,2.59E-04,0
COSMOS 2251 DEB,1993-036BLQ,2024-12-30T17:37:45.827616,14.62694028,0.0038989,73.9146,152.3057,64.5542,295.965,0,U,37487,999,76139,9.61E-03,4.98E-04,0
COSMOS 2251 DEB,1993-036BLU,2024-12-29T02:57:02.271744,13.73757584,0.0318202,73.9072,137.8729,197.0687,161.9537,0,U,37491,999,50956,5.73E-03,7.71E-05,0
COSMOS 2251 DEB,1993-036BMC,2024-12-30T01:34:03.481248,14.33879738,0.0027186,74.0367,238.4568,40.0312,320.2836,0,U,37499,999,80165,3.86E-04,1.05E-05,0
COSMOS 2251 DEB,1993-036BMD,2024-12-31T12:00:03.706560,15.53698692,0.0086544,73.9522,285.2907,182.8344,177.2394,0,U,37500,999,84387,7.93E-04,6.02E-04,0
COSMOS 2251 DEB,1993-036BMU,2024-12-31T08:47:39.348960,14.78611978,0.0055642,74.1313,235.568,201.1582,158.7294,0,U,37515,999,80569,7.50E-03,5.68E-04,0
COSMOS 2251 DEB,1993-036BNH,2024-12-31T20:22:45.414336,14.48816416,0.0023056,74.0387,51.3485,285.3128,74.5484,0,U,37528,999,80918,1.43E-03,5.39E-05,0
COSMOS 2251 DEB,1993-036BNK,2024-12-31T10:22:03.307872,14.33867596,0.0026176,74.0346,247.567,34.9707,138.0547,0,U,37530,999,80267,6.26E-04,1.73E-05,0
COSMOS 2251 DEB,1993-036BNM,2024-12-31T03:06:30.984192,14.41553576,0.0016509,74.0502,137.6943,325.0066,208.8841,0,U,37532,999,79919,8.20E-04,2.64E-05,0
COSMOS 2251 DEB,1993-036BNN,2024-12-30T21:26:16.650528,14.09620099,0.0164298,74.0661,82.1471,224.2567,134.5338,0,U,37533,999,78464,5.40E-03,1.07E-04,0
